{
  "type": "FeatureCollection",
  "features": [
    {
      "type": "Feature",
      "properties": {
        "norad_id": 67047,
        "name": "STARLINK-35779",
        "group": "last-30-days",
        "lat": 35.01226179070449,
        "lon": 171.1934516079193,
        "alt_km": 318.3015222400427,
        "timestamp": "2025-12-22T11:33:19.157960+00:00",
        "meta_object_name": "STARLINK-35779",
        "meta_object_id": "2025-294T",
        "meta_epoch": "2025-12-22T04:00:01.998720",
        "meta_mean_motion": 15.83945673,
        "meta_eccentricity": 0.0001305,
        "meta_inclination": 43.0003,
        "meta_ra_of_asc_node": 124.3833,
        "meta_arg_of_pericenter": 276.9056,
        "meta_mean_anomaly": 144.0424,
        "meta_ephemeris_type": 0,
        "meta_classification_type": "U",
        "meta_norad_cat_id": 67047,
        "meta_element_set_no": 999,
        "meta_rev_at_epoch": 163,
        "meta_bstar": -0.0095435,
        "meta_mean_motion_dot": -0.01921202,
        "meta_mean_motion_ddot": 0,
        "tle_line1": "1 67047U 25294T   25356.16668980 -.01921202  00000+0 -95435-2 0  9997",
        "tle_line2": "2 67047  43.0003 124.3833 0001305 276.9056 144.0424 15.83945673  1634"
      },
      "geometry": {
        "type": "Point",
        "coordinates": [
          171.1934516079193,
          35.01226179070449
        ]
      }
    },
    {
      "type": "Feature",
      "properties": {
        "norad_id": 67048,
        "name": "STARLINK-35905",
        "group": "last-30-days",
        "lat": 35.88172181746715,
        "lon": 173.36780308481656,
        "alt_km": 318.2278318214676,
        "timestamp": "2025-12-22T11:33:19.157970+00:00",
        "meta_object_name": "STARLINK-35905",
        "meta_object_id": "2025-294U",
        "meta_epoch": "2025-12-22T04:00:01.998720",
        "meta_mean_motion": 15.83949308,
        "meta_eccentricity": 0.0001365,
        "meta_inclination": 43.0005,
        "meta_ra_of_asc_node": 124.3782,
        "meta_arg_of_pericenter": 276.3281,
        "meta_mean_anomaly": 146.5925,
        "meta_ephemeris_type": 0,
        "meta_classification_type": "U",
        "meta_norad_cat_id": 67048,
        "meta_element_set_no": 999,
        "meta_rev_at_epoch": 174,
        "meta_bstar": -0.0095683,
        "meta_mean_motion_dot": -0.01925891,
        "meta_mean_motion_ddot": 0,
        "tle_line1": "1 67048U 25294U   25356.16668980 -.01925891  00000+0 -95683-2 0  9991",
        "tle_line2": "2 67048  43.0005 124.3782 0001365 276.3281 146.5925 15.83949308  1744"
      },
      "geometry": {
        "type": "Point",
        "coordinates": [
          173.36780308481656,
          35.88172181746715
        ]
      }
    },
    {
      "type": "Feature",
      "properties": {
        "norad_id": 67049,
        "name": "STARLINK-35877",
        "group": "last-30-days",
        "lat": 36.88956063748633,
        "lon": 176.09018332168367,
        "alt_km": 318.1596986573577,
        "timestamp": "2025-12-22T11:33:19.157979+00:00",
        "meta_object_name": "STARLINK-35877",
        "meta_object_id": "2025-294V",
        "meta_epoch": "2025-12-22T04:00:01.998720",
        "meta_mean_motion": 15.83937329,
        "meta_eccentricity": 0.0001355,
        "meta_inclination": 43.0006,
        "meta_ra_of_asc_node": 124.3722,
        "meta_arg_of_pericenter": 275.078,
        "meta_mean_anomaly": 150.2742,
        "meta_ephemeris_type": 0,
        "meta_classification_type": "U",
        "meta_norad_cat_id": 67049,
        "meta_element_set_no": 999,
        "meta_rev_at_epoch": 182,
        "meta_bstar": -0.0096177,
        "meta_mean_motion_dot": -0.01933545,
        "meta_mean_motion_ddot": 0,
        "tle_line1": "1 67049U 25294V   25356.16668980 -.01933545  00000+0 -96177-2 0  9996",
        "tle_line2": "2 67049  43.0006 124.3722 0001355 275.0780 150.2742 15.83937329  1827"
      },
      "geometry": {
        "type": "Point",
        "coordinates": [
          176.09018332168367,
          36.88956063748633
        ]
      }
    },
    {
      "type": "Feature",
      "properties": {
        "norad_id": 67050,
        "name": "STARLINK-36078",
        "group": "last-30-days",
        "lat": 37.83931199298311,
        "lon": 178.90192044011854,
        "alt_km": 318.19685581655267,
        "timestamp": "2025-12-22T11:33:19.157989+00:00",
        "meta_object_name": "STARLINK-36078",
        "meta_object_id": "2025-294W",
        "meta_epoch": "2025-12-22T04:00:01.998720",
        "meta_mean_motion": 15.8391126,
        "meta_eccentricity": 0.0001492,
        "meta_inclination": 43.0005,
        "meta_ra_of_asc_node": 124.3659,
        "meta_arg_of_pericenter": 272.4554,
        "meta_mean_anomaly": 155.3516,
        "meta_ephemeris_type": 0,
        "meta_classification_type": "U",
        "meta_norad_cat_id": 67050,
        "meta_element_set_no": 999,
        "meta_rev_at_epoch": 174,
        "meta_bstar": -0.0095658,
        "meta_mean_motion_dot": -0.01922512,
        "meta_mean_motion_ddot": 0,
        "tle_line1": "1 67050U 25294W   25356.16668980 -.01922512  00000+0 -95658-2 0  9993",
        "tle_line2": "2 67050  43.0005 124.3659 0001492 272.4554 155.3516 15.83911260  1741"
      },
      "geometry": {
        "type": "Point",
        "coordinates": [
          178.90192044011854,
          37.83931199298311
        ]
      }
    },
    {
      "type": "Feature",
      "properties": {
        "norad_id": 67051,
        "name": "STARLINK-35706",
        "group": "last-30-days",
        "lat": 38.71530607665143,
        "lon": -178.2331942254483,
        "alt_km": 318.20115319224624,
        "timestamp": "2025-12-22T11:33:19.157999+00:00",
        "meta_object_name": "STARLINK-35706",
        "meta_object_id": "2025-294X",
        "meta_epoch": "2025-12-22T04:00:01.998720",
        "meta_mean_motion": 15.83900415,
        "meta_eccentricity": 0.0001681,
        "meta_inclination": 43.0006,
        "meta_ra_of_asc_node": 124.3596,
        "meta_arg_of_pericenter": 276.205,
        "meta_mean_anomaly": 154.0316,
        "meta_ephemeris_type": 0,
        "meta_classification_type": "U",
        "meta_norad_cat_id": 67051,
        "meta_element_set_no": 999,
        "meta_rev_at_epoch": 182,
        "meta_bstar": -0.0096237,
        "meta_mean_motion_dot": -0.01931942,
        "meta_mean_motion_ddot": 0,
        "tle_line1": "1 67051U 25294X   25356.16668980 -.01931942  00000+0 -96237-2 0  9995",
        "tle_line2": "2 67051  43.0006 124.3596 0001681 276.2050 154.0316 15.83900415  1829"
      },
      "geometry": {
        "type": "Point",
        "coordinates": [
          -178.2331942254483,
          38.71530607665143
        ]
      }
    },
    {
      "type": "Feature",
      "properties": {
        "norad_id": 67052,
        "name": "STARLINK-35720",
        "group": "last-30-days",
        "lat": 39.38766597375844,
        "lon": -175.8041886798592,
        "alt_km": 317.9763741301176,
        "timestamp": "2025-12-22T11:33:19.158011+00:00",
        "meta_object_name": "STARLINK-35720",
        "meta_object_id": "2025-294Y",
        "meta_epoch": "2025-12-22T04:00:01.998720",
        "meta_mean_motion": 15.8389013,
        "meta_eccentricity": 0.0001453,
        "meta_inclination": 43.0007,
        "meta_ra_of_asc_node": 124.3547,
        "meta_arg_of_pericenter": 277.4355,
        "meta_mean_anomaly": 154.8137,
        "meta_ephemeris_type": 0,
        "meta_classification_type": "U",
        "meta_norad_cat_id": 67052,
        "meta_element_set_no": 999,
        "meta_rev_at_epoch": 181,
        "meta_bstar": -0.0095768,
        "meta_mean_motion_dot": -0.01922688,
        "meta_mean_motion_ddot": 0,
        "tle_line1": "1 67052U 25294Y   25356.16668980 -.01922688  00000+0 -95768-2 0  9991",
        "tle_line2": "2 67052  43.0007 124.3547 0001453 277.4355 154.8137 15.83890130  1815"
      },
      "geometry": {
        "type": "Point",
        "coordinates": [
          -175.8041886798592,
          39.38766597375844
        ]
      }
    },
    {
      "type": "Feature",
      "properties": {
        "norad_id": 67053,
        "name": "STARLINK-35739",
        "group": "last-30-days",
        "lat": 40.08216722599881,
        "lon": -173.017772504478,
        "alt_km": 317.99586232508227,
        "timestamp": "2025-12-22T11:33:19.158021+00:00",
        "meta_object_name": "STARLINK-35739",
        "meta_object_id": "2025-294Z",
        "meta_epoch": "2025-12-22T04:00:01.998720",
        "meta_mean_motion": 15.83881782,
        "meta_eccentricity": 0.0001594,
        "meta_inclination": 43.0008,
        "meta_ra_of_asc_node": 124.3488,
        "meta_arg_of_pericenter": 278.847,
        "meta_mean_anomaly": 155.6673,
        "meta_ephemeris_type": 0,
        "meta_classification_type": "U",
        "meta_norad_cat_id": 67053,
        "meta_element_set_no": 999,
        "meta_rev_at_epoch": 147,
        "meta_bstar": -0.0096133,
        "meta_mean_motion_dot": -0.01928525,
        "meta_mean_motion_ddot": 0,
        "tle_line1": "1 67053U 25294Z   25356.16668980 -.01928525  00000+0 -96133-2 0  9995",
        "tle_line2": "2 67053  43.0008 124.3488 0001594 278.8470 155.6673 15.83881782  1479"
      },
      "geometry": {
        "type": "Point",
        "coordinates": [
          -173.017772504478,
          40.08216722599881
        ]
      }
    }
  ]
}